[{"OBJECT_NAME":"SITRO-AIS 19","OBJECT_ID":"2024-199AA","EPOCH":"2026-03-09T22:55:52.374720","MEAN_MOTION":14.97361264,"ECCENTRICITY":0.00068965,"INCLINATION":97.3309,"RA_OF_ASC_NODE":274.6556,"ARG_OF_PERICENTER":52.1847,"MEAN_ANOMALY":307.9999,"EPHEMERIS_TYPE":0,"CLASSIFICATION_TYPE":"U","NORAD_CAT_ID":61759,"ELEMENT_SET_NO":999,"REV_AT_EPOCH":12028,"BSTAR":0.00032569983,"MEAN_MOTION_DOT":3.731e-5,"MEAN_MOTION_DDOT":0},{"OBJECT_NAME":"STARLINK-36216","OBJECT_ID":"2025-304AB","EPOCH":"2026-03-09T16:30:17.309376","MEAN_MOTION":14.98333147,"ECCENTRICITY":0.0004257,"INCLINATION":70.0016,"RA_OF_ASC_NODE":174.4865,"ARG_OF_PERICENTER":263.2577,"MEAN_ANOMALY":96.8098,"EPHEMERIS_TYPE":0,"CLASSIFICATION_TYPE":"U","NORAD_CAT_ID":67217,"ELEMENT_SET_NO":999,"REV_AT_EPOCH":1387,"BSTAR":0.00040737773,"MEAN_MOTION_DOT":4.772e-5,"MEAN_MOTION_DDOT":0}]
